GLOBALSTAR M084         
1 38040U 11080A   24194.86539490 -.00000100  00000+0  21408-4 0  9999
2 38040  52.0026   1.4931 0001012  79.0034  65.4473 12.62264080580099
GLOBALSTAR M080         
1 38041U 11080B   24194.83773448 -.00000088  00000+0  87658-4 0  9994
2 38041  52.0077   3.0644 0000885  64.4349  74.6138 12.62262774580075
GLOBALSTAR M082         
1 38042U 11080C   24194.77601556 -.00000086  00000+0  10027-3 0  9991
2 38042  52.0094 318.6643 0001194 135.7382  22.4609 12.62271012580802
GLOBALSTAR M092         
1 38043U 11080D   24194.56367279 -.00000090  00000+0  75874-4 0  9997
2 38043  52.0096  49.6672 0000946  73.9749 319.1846 12.62263408579067
GLOBALSTAR M090         
1 38044U 11080E   24194.61241027 -.00000091  00000+0  69319-4 0  9994
2 38044  51.9902 313.4086 0000871 131.5428 242.4743 12.62264590580738
GLOBALSTAR M086         
1 38045U 11080F   24194.63855984 -.00000082  00000+0  11906-3 0  9998
2 38045  51.9912 313.8526 0000244 254.1346 119.5715 12.62264206580689
GLOBALSTAR M097         
1 39072U 13005A   24194.42499562 -.00000107  00000+0 -19791-4 0  9991
2 39072  52.0024 228.7088 0000351 194.1520 165.9337 12.62268839527906
GLOBALSTAR M093         
1 39073U 13005B   24194.55654082 -.00000096  00000+0  42395-4 0  9998
2 39073  51.9784 222.1517 0000446 212.6616 147.4223 12.62275888527877
